{"type": "FeatureCollection", "features": [ {"type": "Feature", "properties": {"norad_id": 34327, "name": "COSMOS 2251 DEB", "group": "cosmos-2251-debris", "lat": -11.941609576589167, "lon": 159.900210148475, "alt_km": 581.4990273963394, "timestamp": "2025-12-16T23:36:36.592085+00:00", "meta": {"OBJECT_NAME": "COSMOS 2251 DEB", "OBJECT_ID": "1993-036NZ", "EPOCH": "2025-12-15T22:32:40.468128", "MEAN_MOTION": 14.89256606, "ECCENTRICITY": 0.00330529, "INCLINATION": 73.9932, "RA_OF_ASC_NODE": 165.4728, "ARG_OF_PERICENTER": 341.1158, "MEAN_ANOMALY": 169.4704, "EPHEMERIS_TYPE": 0, "CLASSIFICATION_TYPE": "U", "NORAD_CAT_ID": 34327, "ELEMENT_SET_NO": 999, "REV_AT_EPOCH": 89555, "BSTAR": 0.00090163026, "MEAN_MOTION_DOT": 8.597e-05, "MEAN_MOTION_DDOT": 0}, "tle": {"line1": "1 34327U 93036NZ  25349.93935727  .00008597  00000+0  90163-3 0  9998", "line2": "2 34327  73.9932 165.4728 0033052 341.1158 169.4704 14.89256606895553"}}, "geometry": {"type": "Point", "coordinates": [159.900210148475, -11.941609576589167]}}, {"type": "Feature", "properties": {"norad_id": 34340, "name": "COSMOS 2251 DEB", "group": "cosmos-2251-debris", "lat": -73.71521762891162, "lon": -161.39881915689062, "alt_km": 1131.771997328181, "timestamp": "2025-12-16T23:36:36.592095+00:00", "meta": {"OBJECT_NAME": "COSMOS 2251 DEB", "OBJECT_ID": "1993-036PN", "EPOCH": "2025-12-16T07:12:46.882368", "MEAN_MOTION": 13.7958595, "ECCENTRICITY": 0.02830959, "INCLINATION": 74.079, "RA_OF_ASC_NODE": 302.0396, "ARG_OF_PERICENTER": 48.9731, "MEAN_ANOMALY": 67.773, "EPHEMERIS_TYPE": 0, "CLASSIFICATION_TYPE": "U", "NORAD_CAT_ID": 34340, "ELEMENT_SET_NO": 999, "REV_AT_EPOCH": 84317, "BSTAR": 0.0013111839, "MEAN_MOTION_DOT": 1.805e-05, "MEAN_MOTION_DDOT": 0}, "tle": {"line1": "1 34340U 93036PN  25350.30054262  .00001805  00000+0  13112-2 0  9995", "line2": "2 34340  74.0790 302.0396 0283095  48.9731  67.7730 13.79585950843170"}}, "geometry": {"type": "Point", "coordinates": [-161.39881915689062, -73.71521762891162]}}, {"type": "Feature", "properties": {"norad_id": 34343, "name": "COSMOS 2251 DEB", "group": "cosmos-2251-debris", "lat": -73.59091862120191, "lon": 4.655613637540471, "alt_km": 666.9254929791159, "timestamp": "2025-12-16T23:36:36.592105+00:00", "meta": {"OBJECT_NAME": "COSMOS 2251 DEB", "OBJECT_ID": "1993-036PR", "EPOCH": "2025-12-16T07:54:59.054688", "MEAN_MOTION": 14.6950151, "ECCENTRICITY": 0.00236848, "INCLINATION": 74.0203, "RA_OF_ASC_NODE": 82.592, "ARG_OF_PERICENTER": 356.1062, "MEAN_ANOMALY": 60.0286, "EPHEMERIS_TYPE": 0, "CLASSIFICATION_TYPE": "U", "NORAD_CAT_ID": 34343, "ELEMENT_SET_NO": 999, "REV_AT_EPOCH": 88783, "BSTAR": 0.00092793903, "MEAN_MOTION_DOT": 5.498e-05, "MEAN_MOTION_DDOT": 0}, "tle": {"line1": "1 34343U 93036PR  25350.32985017  .00005498  00000+0  92794-3 0  9997", "line2": "2 34343  74.0203  82.5920 0023684 356.1062  60.0286 14.69501510887835"}}, "geometry": {"type": "Point", "coordinates": [4.655613637540471, -73.59091862120191]}}, {"type": "Feature", "properties": {"norad_id": 34344, "name": "COSMOS 2251 DEB", "group": "cosmos-2251-debris", "lat": -68.04543372277297, "lon": 57.304813765396766, "alt_km": 731.6996773730953, "timestamp": "2025-12-16T23:36:36.592116+00:00", "meta": {"OBJECT_NAME": "COSMOS 2251 DEB", "OBJECT_ID": "1993-036PS", "EPOCH": "2025-12-16T08:58:16.186080", "MEAN_MOTION": 14.16437344, "ECCENTRICITY": 0.01560737, "INCLINATION": 73.9778, "RA_OF_ASC_NODE": 103.8594, "ARG_OF_PERICENTER": 287.2672, "MEAN_ANOMALY": 128.9265, "EPHEMERIS_TYPE": 0, "CLASSIFICATION_TYPE": "U", "NORAD_CAT_ID": 34344, "ELEMENT_SET_NO": 999, "REV_AT_EPOCH": 86148, "BSTAR": 0.0015005055, "MEAN_MOTION_DOT": 3.335e-05, "MEAN_MOTION_DDOT": 0}, "tle": {"line1": "1 34344U 93036PS  25350.37379845  .00003335  00000+0  15005-2 0  9996", "line2": "2 34344  73.9778 103.8594 0156073 287.2672 128.9265 14.16437344861484"}}, "geometry": {"type": "Point", "coordinates": [57.304813765396766, -68.04543372277297]}}, {"type": "Feature", "properties": {"norad_id": 34346, "name": "COSMOS 2251 DEB", "group": "cosmos-2251-debris", "lat": 35.206810691987585, "lon": 113.19771639576885, "alt_km": 751.0036719251502, "timestamp": "2025-12-16T23:36:36.592126+00:00", "meta": {"OBJECT_NAME": "COSMOS 2251 DEB", "OBJECT_ID": "1993-036PU", "EPOCH": "2025-12-16T08:05:16.951200", "MEAN_MOTION": 13.99703788, "ECCENTRICITY": 0.02061805, "INCLINATION": 73.9948, "RA_OF_ASC_NODE": 306.0041, "ARG_OF_PERICENTER": 124.0573, "MEAN_ANOMALY": 0.4999, "EPHEMERIS_TYPE": 0, "CLASSIFICATION_TYPE": "U", "NORAD_CAT_ID": 34346, "ELEMENT_SET_NO": 999, "REV_AT_EPOCH": 85460, "BSTAR": 0.00067394044, "MEAN_MOTION_DOT": 1.162e-05, "MEAN_MOTION_DDOT": 0}, "tle": {"line1": "1 34346U 93036PU  25350.33700175  .00001162  00000+0  67394-3 0  9993", "line2": "2 34346  73.9948 306.0041 0206180 124.0573   0.4999 13.99703788854604"}}, "geometry": {"type": "Point", "coordinates": [113.19771639576885, 35.206810691987585]}}, {"type": "Feature", "properties": {"norad_id": 34383, "name": "COSMOS 2251 DEB", "group": "cosmos-2251-debris", "lat": -30.14505589566511, "lon": 118.52380563884745, "alt_km": 545.6429022345847, "timestamp": "2025-12-16T23:36:36.592137+00:00", "meta": {"OBJECT_NAME": "COSMOS 2251 DEB", "OBJECT_ID": "1993-036PY", "EPOCH": "2025-12-16T07:20:01.644576", "MEAN_MOTION": 15.09313344, "ECCENTRICITY": 0.00026982, "INCLINATION": 74.0223, "RA_OF_ASC_NODE": 290.3446, "ARG_OF_PERICENTER": 45.2838, "MEAN_ANOMALY": 82.7003, "EPHEMERIS_TYPE": 0, "CLASSIFICATION_TYPE": "U", "NORAD_CAT_ID": 34383, "ELEMENT_SET_NO": 999, "REV_AT_EPOCH": 89167, "BSTAR": 0.0020915278, "MEAN_MOTION_DOT": 0.00033479, "MEAN_MOTION_DDOT": 0}, "tle": {"line1": "1 34383U 93036PY  25350.30557459  .00033479  00000+0  20915-2 0  9999", "line2": "2 34383  74.0223 290.3446 0002698  45.2838  82.7003 15.09313344891678"}}, "geometry": {"type": "Point", "coordinates": [118.52380563884745, -30.14505589566511]}}, {"type": "Feature", "properties": {"norad_id": 34387, "name": "COSMOS 2251 DEB", "group": "cosmos-2251-debris", "lat": -46.915705698818975, "lon": 41.82602600957646, "alt_km": 743.1476732801839, "timestamp": "2025-12-16T23:36:36.592208+00:00", "meta": {"OBJECT_NAME": "COSMOS 2251 DEB", "OBJECT_ID": "1993-036QC", "EPOCH": "2025-12-16T08:24:07.966080", "MEAN_MOTION": 14.43828549, "ECCENTRICITY": 0.00387772, "INCLINATION": 74.0392, "RA_OF_ASC_NODE": 205.1852, "ARG_OF_PERICENTER": 301.5237, "MEAN_ANOMALY": 235.9317, "EPHEMERIS_TYPE": 0, "CLASSIFICATION_TYPE": "U", "NORAD_CAT_ID": 34387, "ELEMENT_SET_NO": 999, "REV_AT_EPOCH": 88233, "BSTAR": 0.00027942439, "MEAN_MOTION_DOT": 9.33e-06, "MEAN_MOTION_DDOT": 0}, "tle": {"line1": "1 34387U 93036QC  25350.35009220  .00000933  00000+0  27942-3 0  9993", "line2": "2 34387  74.0392 205.1852 0038777 301.5237 235.9317 14.43828549882330"}}, "geometry": {"type": "Point", "coordinates": [41.82602600957646, -46.915705698818975]}}, {"type": "Feature", "properties": {"norad_id": 34388, "name": "COSMOS 2251 DEB", "group": "cosmos-2251-debris", "lat": -58.860492098042855, "lon": -173.12875258866217, "alt_km": 726.2087906641182, "timestamp": "2025-12-16T23:36:36.592222+00:00", "meta": {"OBJECT_NAME": "COSMOS 2251 DEB", "OBJECT_ID": "1993-036QD", "EPOCH": "2025-12-16T01:24:27.885312", "MEAN_MOTION": 14.49383199, "ECCENTRICITY": 0.00139668, "INCLINATION": 74.039, "RA_OF_ASC_NODE": 216.88, "ARG_OF_PERICENTER": 264.8871, "MEAN_ANOMALY": 247.1614, "EPHEMERIS_TYPE": 0, "CLASSIFICATION_TYPE": "U", "NORAD_CAT_ID": 34388, "ELEMENT_SET_NO": 999, "REV_AT_EPOCH": 88203, "BSTAR": 0.00045783066, "MEAN_MOTION_DOT": 1.725e-05, "MEAN_MOTION_DDOT": 0}, "tle": {"line1": "1 34388U 93036QD  25350.05865608  .00001725  00000+0  45783-3 0  9994", "line2": "2 34388  74.0390 216.8800 0013966 264.8871 247.1614 14.49383199882034"}}, "geometry": {"type": "Point", "coordinates": [-173.12875258866217, -58.860492098042855]}}, {"type": "Feature", "properties": {"norad_id": 34389, "name": "COSMOS 2251 DEB", "group": "cosmos-2251-debris", "lat": -19.038683596251087, "lon": 67.6208258202323, "alt_km": 776.653035937582, "timestamp": "2025-12-16T23:36:36.592233+00:00", "meta": {"OBJECT_NAME": "COSMOS 2251 DEB", "OBJECT_ID": "1993-036QE", "EPOCH": "2025-12-16T03:23:40.460928", "MEAN_MOTION": 14.41541397, "ECCENTRICITY": 0.00290539, "INCLINATION": 74.0184, "RA_OF_ASC_NODE": 243.5066, "ARG_OF_PERICENTER": 354.9026, "MEAN_ANOMALY": 155.4909, "EPHEMERIS_TYPE": 0, "CLASSIFICATION_TYPE": "U", "NORAD_CAT_ID": 34389, "ELEMENT_SET_NO": 999, "REV_AT_EPOCH": 88061, "BSTAR": 0.00033714032, "MEAN_MOTION_DOT": 1.075e-05, "MEAN_MOTION_DDOT": 0}, "tle": {"line1": "1 34389U 93036QE  25350.14144052  .00001075  00000+0  33714-3 0  9997", "line2": "2 34389  74.0184 243.5066 0029053 354.9026 155.4909 14.41541397880612"}}, "geometry": {"type": "Point", "coordinates": [67.6208258202323, -19.038683596251087]}}, {"type": "Feature", "properties": {"norad_id": 34396, "name": "COSMOS 2251 DEB", "group": "cosmos-2251-debris", "lat": -73.76006479622751, "lon": 15.247135979236146, "alt_km": 655.0784780247222, "timestamp": "2025-12-16T23:36:36.592243+00:00", "meta": {"OBJECT_NAME": "COSMOS 2251 DEB", "OBJECT_ID": "1993-036QM", "EPOCH": "2025-12-16T07:51:05.181984", "MEAN_MOTION": 14.74520605, "ECCENTRICITY": 0.00056066, "INCLINATION": 74.0279, "RA_OF_ASC_NODE": 117.0241, "ARG_OF_PERICENTER": 156.2643, "MEAN_ANOMALY": 226.7008, "EPHEMERIS_TYPE": 0, "CLASSIFICATION_TYPE": "U", "NORAD_CAT_ID": 34396, "ELEMENT_SET_NO": 999, "REV_AT_EPOCH": 88399, "BSTAR": 0.0015038513, "MEAN_MOTION_DOT": 9.991e-05, "MEAN_MOTION_DDOT": 0}, "tle": {"line1": "1 34396U 93036QM  25350.32714331  .00009991  00000+0  15039-2 0  9992", "line2": "2 34396  74.0279 117.0241 0005606 156.2643 226.7008 14.74520605883992"}}, "geometry": {"type": "Point", "coordinates": [15.247135979236146, -73.76006479622751]}}]}